{
    "links": {
        "self": "http://www.neowsapp.com/rest/v1/neo/3989507?api_key=iIulBulltgU6a56xZRHN4H3l9WmuAYTsLGpBGhQ2"
    },
    "id": "3989507",
    "neo_reference_id": "3989507",
    "name": "(2020 CC1)",
    "designation": "2020 CC1",
    "nasa_jpl_url": "http://ssd.jpl.nasa.gov/sbdb.cgi?sstr=3989507",
    "absolute_magnitude_h": 27.995,
    "estimated_diameter": {
        "kilometers": {
            "estimated_diameter_min": 0.0066919853,
            "estimated_diameter_max": 0.014963734
        },
        "meters": {
            "estimated_diameter_min": 6.691985274,
            "estimated_diameter_max": 14.9637339771
        },
        "miles": {
            "estimated_diameter_min": 0.0041582056,
            "estimated_diameter_max": 0.0092980303
        },
        "feet": {
            "estimated_diameter_min": 21.9553329663,
            "estimated_diameter_max": 49.0936169813
        }
    },
    "is_potentially_hazardous_asteroid": false,
    "close_approach_data": [
        {
            "close_approach_date": "2020-01-30",
            "close_approach_date_full": "2020-Jan-30 19:11",
            "epoch_date_close_approach": 1580411460000,
            "relative_velocity": {
                "kilometers_per_second": "7.6559998945",
                "kilometers_per_hour": "27561.5996203085",
                "miles_per_hour": "17125.7061640744"
            },
            "miss_distance": {
                "astronomical": "0.0302594664",
                "lunar": "11.7709324296",
                "kilometers": "4526751.720776568",
                "miles": "2812793.0883419184"
            },
            "orbiting_body": "Earth"
        },
        {
            "close_approach_date": "2076-10-01",
            "close_approach_date_full": "2076-Oct-01 23:03",
            "epoch_date_close_approach": 3368818980000,
            "relative_velocity": {
                "kilometers_per_second": "6.6504794575",
                "kilometers_per_hour": "23941.7260470823",
                "miles_per_hour": "14876.4574985329"
            },
            "miss_distance": {
                "astronomical": "0.4580778148",
                "lunar": "178.1922699572",
                "kilometers": "68527465.388334476",
                "miles": "42580992.4854527288"
            },
            "orbiting_body": "Earth"
        },
        {
            "close_approach_date": "2077-02-26",
            "close_approach_date_full": "2077-Feb-26 22:48",
            "epoch_date_close_approach": 3381605280000,
            "relative_velocity": {
                "kilometers_per_second": "16.5430882831",
                "kilometers_per_hour": "59555.1178193072",
                "miles_per_hour": "37005.2341805579"
            },
            "miss_distance": {
                "astronomical": "0.396023559",
                "lunar": "154.053164451",
                "kilometers": "59244280.89621933",
                "miles": "36812689.121833554"
            },
            "orbiting_body": "Earth"
        },
        {
            "close_approach_date": "2113-01-16",
            "close_approach_date_full": "2113-Jan-16 01:39",
            "epoch_date_close_approach": 4513973940000,
            "relative_velocity": {
                "kilometers_per_second": "7.5551044345",
                "kilometers_per_hour": "27198.3759641396",
                "miles_per_hour": "16900.0131094955"
            },
            "miss_distance": {
                "astronomical": "0.1276242982",
                "lunar": "49.6458519998",
                "kilometers": "19092323.170964834",
                "miles": "11863419.5043653492"
            },
            "orbiting_body": "Earth"
        }
    ],
    "orbital_data": {
        "orbit_id": "1",
        "orbit_determination_date": "2020-02-04 07:42:03",
        "first_observation_date": "2020-01-28",
        "last_observation_date": "2020-02-04",
        "data_arc_in_days": 7,
        "observations_used": 16,
        "orbit_uncertainty": "7",
        "minimum_orbit_intersection": ".0303029",
        "jupiter_tisserand_invariant": "4.726",
        "epoch_osculation": "2459000.5",
        "eccentricity": ".2793275309162661",
        "semi_major_axis": "1.385006147037569",
        "inclination": "11.94337112172357",
        "ascending_node_longitude": "312.8237790674405",
        "orbital_period": "595.3549628755696",
        "perihelion_distance": ".9981357996817141",
        "perihelion_argument": "155.6183008086695",
        "aphelion_distance": "1.771876494393424",
        "perihelion_time": "2458859.832143494914",
        "mean_anomaly": "85.05921928866999",
        "mean_motion": ".6046812783103325",
        "equinox": "J2000",
        "orbit_class": {
            "orbit_class_type": "APO",
            "orbit_class_description": "Near-Earth asteroid orbits which cross the Earth’s orbit similar to that of 1862 Apollo",
            "orbit_class_range": "a (semi-major axis) > 1.0 AU; q (perihelion) < 1.017 AU"
        }
    },
    "is_sentry_object": false
}